NORAD_CAT_ID,OBJECT_NAME,OBJECT_TYPE,EPOCH,MEAN_MOTION,ECCENTRICITY,INCLINATION,RA_OF_ASC_NODE,ARG_OF_PERICENTER,MEAN_ANOMALY,BSTAR,MEAN_MOTION_DOT,MEAN_MOTION_DDOT,TLE_LINE0,TLE_LINE1,TLE_LINE2,SEMIMAJOR_AXIS,PERIOD,APOGEE,PERIGEE,DECAYED
53174.0,STARLINK-4205,PAYLOAD,2022-09-10 14:00:01,15.08805205,0.0001396999999999,53.2164,142.7667,67.4782,321.3234,0.0037034999999999,0.00059091,0.0,0 STARLINK-4205,1 53174U 22083AU  22253.58334491  .00059091  00000-0  37035-2 0  9990,2 53174  53.2164 142.7667 0001397  67.4782 321.3234 15.08805205  1306,6917.986999999999,95.44,540.818,538.885,0.0
53174.0,STARLINK-4205,PAYLOAD,2022-09-10 22:00:00,15.08847814,0.0001527,53.2164,141.2718,62.3471,338.0192,-0.00092598,-0.00014998,0.0,0 STARLINK-4205,1 53174U 22083AU  22253.91667824 -.00014998  00000-0 -92598-3 0  9991,2 53174  53.2164 141.2718 0001527  62.3471 338.0192 15.08847814  1301,6917.857,95.437,540.778,538.665,0.0
53174.0,STARLINK-4205,PAYLOAD,2022-09-11 14:00:01,15.088129,0.000148,53.2161,138.2774,69.8521,353.7364,0.0036669,0.00058512,0.0,0 STARLINK-4205,1 53174U 22083AU  22254.58334491  .00058512  00000-0  36669-2 0  9990,2 53174  53.2161 138.2774 0001480  69.8521 353.7364 15.08812900  9358,6917.9630000000025,95.439,540.852,538.804,0.0
53174.0,STARLINK-4205,PAYLOAD,2022-09-11 22:00:00,15.08868502,0.0001583,53.216,136.7826,64.3626,10.8075,-0.0037118,-0.00058924,0.0,0 STARLINK-4205,1 53174U 22083AU  22254.91667824 -.00058924  00000-0 -37118-2 0  9995,2 53174  53.2160 136.7826 0001583  64.3626  10.8075 15.08868502  1304,6917.793000000002,95.436,540.753,538.563,0.0
53174.0,STARLINK-4205,PAYLOAD,2022-09-12 04:00:00,15.08823617,0.0001551999999999,53.2156,135.6605,59.8587,294.0212,0.0010087,0.00015795,0.0,0 STARLINK-4205,1 53174U 22083AU  22255.16667824  .00015795  00000-0  10087-2 0  9996,2 53174  53.2156 135.6605 0001552  59.8587 294.0212 15.08823617  9432,6917.93,95.439,540.869,538.722,0.0
53174.0,STARLINK-4205,PAYLOAD,2022-09-12 14:00:01,15.08797868,0.0001496,53.2156,133.7881,72.0945,26.2715,0.0029994,0.00047716,0.0,0 STARLINK-4205,1 53174U 22083AU  22255.58334491  .00047716  00000-0  29994-2 0  9998,2 53174  53.2156 133.7881 0001496  72.0945  26.2715 15.08797868  1308,6918.009,95.44,540.909,538.839,0.0
53174.0,STARLINK-4205,PAYLOAD,2022-09-12 20:00:01,15.08838386,0.0001564,53.2156,132.667,68.4134,308.6825,-0.0010545,-0.0001703,0.0,0 STARLINK-4205,1 53174U 22083AU  22255.83335648 -.00017030  00000-0 -10545-2 0  9991,2 53174  53.2156 132.6670 0001564  68.4134 308.6825 15.08838386  9541,6917.885,95.438,540.832,538.668,0.0
53174.0,STARLINK-4205,PAYLOAD,2022-09-12 22:00:00,15.08831664,0.0001618,53.2154,132.2934,66.1543,43.776,-0.00043266,-7.166e-05,0.0,0 STARLINK-4205,1 53174U 22083AU  22255.91667824 -.00007166  00000-0 -43266-3 0  9990,2 53174  53.2154 132.2934 0001618  66.1543  43.7760 15.08831664  1300,6917.906,95.438,540.89,538.6519999999998,0.0
53174.0,STARLINK-4205,PAYLOAD,2022-09-13 14:00:01,15.08839169,0.000144,53.2149,129.2989,73.2494,59.8622,4.2882e-05,3.95e-06,0.0,0 STARLINK-4205,1 53174U 22083AU  22256.58334491  .00000395  00000-0  42882-4 0  9994,2 53174  53.2149 129.2989 0001440  73.2494  59.8622 15.08839169  1300,6917.8830000000025,95.438,540.744,538.752,0.0
53174.0,STARLINK-4205,PAYLOAD,2022-09-13 16:00:00,15.0884703,0.0001455,53.2153,128.9264,74.9023,151.1045,-0.00086087,-0.00013965,0.0,0 STARLINK-4205,1 53174U 22083AU  22256.66667824 -.00013965  00000-0 -86087-3 0  9995,2 53174  53.2153 128.9264 0001455  74.9023 151.1045 15.08847030  9667,6917.859,95.437,540.73,538.717,0.0
53174.0,STARLINK-4205,PAYLOAD,2022-09-13 22:00:00,15.08828401,0.0001523,53.2148,127.8041,65.8724,78.8253,-0.00029696,-5.009e-05,0.0,0 STARLINK-4205,1 53174U 22083AU  22256.91667824 -.00005009  00000-0 -29696-3 0  9996,2 53174  53.2148 127.8041 0001523  65.8724  78.8253 15.08828401  1305,6917.916,95.438,540.8340000000002,538.727,0.0
53174.0,STARLINK-4205,PAYLOAD,2022-09-14 14:00:01,15.08830718,0.0001638,53.2166,124.817,69.5131,98.3341,0.00099835,0.00015632,0.0,0 STARLINK-4205,1 53174U 22083AU  22257.58334491  .00015632  00000-0  99835-3 0  9994,2 53174  53.2166 124.8170 0001638  69.5131  98.3341 15.08830718  1304,6917.909000000002,95.438,540.9069999999998,538.641,0.0
53174.0,STARLINK-4205,PAYLOAD,2022-09-14 20:00:01,15.088368300000004,0.0001715,53.2174,123.6987,65.1924,21.3478,-1.4949e-05,-5.26e-06,0.0,0 STARLINK-4205,1 53174U 22083AU  22257.83334491 -.00000526  00000-0 -14949-4 0  9994,2 53174  53.2174 123.6987 0001715  65.1924  21.3478 15.08836830  9849,6917.89,95.438,540.941,538.569,0.0
53174.0,STARLINK-4205,PAYLOAD,2022-09-14 22:00:00,15.08822439,0.0001671,53.2163,123.3147,67.2176,112.271,-2.7015e-05,-7.18e-06,0.0,0 STARLINK-4205,1 53174U 22083AU  22257.91667824 -.00000718  00000-0 -27015-4 0  9993,2 53174  53.2163 123.3147 0001671  67.2176 112.2710 15.08822439  1307,6917.934,95.439,540.955,538.643,0.0
53174.0,STARLINK-4205,PAYLOAD,2022-09-15 14:00:01,15.08838233,0.0001544,53.2164,120.3202,73.2359,129.4211,-0.00036795,-6.139e-05,0.0,0 STARLINK-4205,1 53174U 22083AU  22258.58334491 -.00006139  00000-0 -36795-3 0  9995,2 53174  53.2164 120.3202 0001544  73.2359 129.4211 15.08838233  1301,6917.886,95.438,540.819,538.683,0.0
53174.0,STARLINK-4205,PAYLOAD,2022-09-15 22:00:00,15.08823225,0.0001617,53.2165,118.8256,64.5065,149.7441,0.00049367,7.574e-05,0.0,0 STARLINK-4205,1 53174U 22083AU  22258.91667824  .00007574  00000-0  49367-3 0  9992,2 53174  53.2165 118.8256 0001617  64.5065 149.7441 15.08823225  1306,6917.932,95.439,540.915,538.678,0.0
53174.0,STARLINK-4205,PAYLOAD,2022-09-16 14:00:01,15.08827207,0.0001476999999999,53.217,115.8311,70.8413,166.5754,0.00011187,1.492e-05,0.0,0 STARLINK-4205,1 53174U 22083AU  22259.58334491  .00001492  00000-0  11187-3 0  9999,2 53174  53.2170 115.8311 0001477  70.8413 166.5754 15.08827207  1300,6917.919,95.438,540.806,538.763,0.0
53174.0,STARLINK-4205,PAYLOAD,2022-09-16 22:00:00,15.08815562,0.0001583,53.2171,114.3365,61.6929,187.305,0.00068392,0.00010606,0.0,0 STARLINK-4205,1 53174U 22083AU  22259.91667824  .00010606  00000-0  68392-3 0  9992,2 53174  53.2171 114.3365 0001583  61.6929 187.3050 15.08815562  1303,6917.955,95.439,540.915,538.725,0.0
53174.0,STARLINK-4205,PAYLOAD,2022-09-17 06:00:00,15.08844467,0.00015,53.2173,112.8394,62.1979,198.3638,-0.001894,-0.00030308,0.0,0 STARLINK-4205,1 53174U 22083AU  22260.25001157 -.00030308  00000-0 -18940-2 0  9998,2 53174  53.2173 112.8394 0001500  62.1979 198.3638 15.08844467 10209,6917.8669999999975,95.437,540.769,538.694,0.0
53174.0,STARLINK-4205,PAYLOAD,2022-09-17 14:00:01,15.08829094,0.0001496,53.2177,111.3421,69.9957,202.1528,0.0017033,0.00026916,0.0,0 STARLINK-4205,1 53174U 22083AU  22260.58334491  .00026916  00000-0  17033-2 0  9994,2 53174  53.2177 111.3421 0001496  69.9957 202.1528 15.08829094  1305,6917.9140000000025,95.438,540.814,538.744,0.0
53174.0,STARLINK-4205,PAYLOAD,2022-09-17 22:00:00,15.088336300000002,0.0001636,53.2178,109.8477,61.4999,222.2447,0.00087322,0.00013634,0.0,0 STARLINK-4205,1 53174U 22083AU  22260.91667824  .00013634  00000-0  87322-3 0  9992,2 53174  53.2178 109.8477 0001636  61.4999 222.2447 15.08833630 10302,6917.9,95.438,540.8969999999998,538.633,0.0
53174.0,STARLINK-4205,PAYLOAD,2022-09-18 14:00:01,15.08844739,0.0001426999999999,53.2183,106.8533,69.4233,237.5864,-0.00037082,-6.185e-05,0.0,0 STARLINK-4205,1 53174U 22083AU  22261.58335648 -.00006185  00000-0 -37082-3 0  9995,2 53174  53.2183 106.8533 0001427  69.4233 237.5864 15.08844739  1309,6917.866,95.437,540.7180000000002,538.744,0.0
53174.0,STARLINK-4205,PAYLOAD,2022-09-18 22:00:00,15.08826331,0.0001531999999999,53.2182,105.3588,59.7244,258.8236,0.0011477,0.00018018,0.0,0 STARLINK-4205,1 53174U 22083AU  22261.91667824  .00018018  00000-0  11477-2 0  9991,2 53174  53.2182 105.3588 0001532  59.7244 258.8236 15.08826331  1300,6917.922,95.438,540.847,538.727,0.0
53174.0,STARLINK-4205,PAYLOAD,2022-09-19 14:00:01,15.08838414,0.0001496999999999,53.2176,102.3726,59.6664,282.0634,-8.0337e-05,-1.566e-05,0.0,0 STARLINK-4205,1 53174U 22083AU  22262.58334491 -.00001566  00000-0 -80337-4 0  9991,2 53174  53.2176 102.3726 0001497  59.6664 282.0634 15.08838414  1305,6917.885,95.438,540.786,538.715,0.0
53174.0,STARLINK-4205,PAYLOAD,2022-09-19 22:00:00,15.08810571,0.0001634,53.2182,100.8701,63.0285,290.3051,0.0013126,0.00020647,0.0,0 STARLINK-4205,1 53174U 22083AU  22262.91667824  .00020647  00000-0  13126-2 0  9996,2 53174  53.2182 100.8701 0001634  63.0285 290.3051 15.08810571 10601,6917.97,95.439,540.966,538.705,0.0
53174.0,STARLINK-4205,PAYLOAD,2022-09-20 14:00:01,15.08840628,0.0001499,53.2181,97.8761,72.3887,304.0984,0.00040225,6.12e-05,0.0,0 STARLINK-4205,1 53174U 22083AU  22263.58334491  .00006120  00000-0  40225-3 0  9992,2 53174  53.2181  97.8761 0001499  72.3887 304.0984 15.08840628  1302,6917.878000000002,95.438,540.78,538.706,0.0
53174.0,STARLINK-4205,PAYLOAD,2022-09-20 22:00:01,15.08825468,0.0001612,53.2178,96.3814,64.2493,323.9013,0.0016500999999999,0.0002606,0.0,0 STARLINK-4205,1 53174U 22083AU  22263.91668981  .00026060  00000-0  16501-2 0  9997,2 53174  53.2178  96.3814 0001612  64.2493 323.9013 15.08825468  1309,6917.925,95.438,540.905,538.675,0.0
53174.0,STARLINK-4205,PAYLOAD,2022-09-21 14:00:01,15.08863038,0.0001599,53.2174,93.3872,73.6736,337.6009,-0.0030074999999999,-0.00047865,0.0,0 STARLINK-4205,1 53174U 22083AU  22264.58334491 -.00047865  00000-0 -30075-2 0  9997,2 53174  53.2174  93.3872 0001599  73.6736 337.6009 15.08863038 10867,6917.81,95.436,540.781,538.569,0.0
53174.0,STARLINK-4205,PAYLOAD,2022-09-21 22:00:00,15.08808047,0.0001730999999999,53.2173,91.8925,66.5896,356.2918,0.0021236999999999,0.00033643,0.0,0 STARLINK-4205,1 53174U 22083AU  22264.91667824  .00033643  00000-0  21237-2 0  9990,2 53174  53.2173  91.8925 0001731  66.5896 356.2918 15.08808047  1308,6917.978,95.44,541.0409999999998,538.646,0.0
